[Satellite]
VERSION=1.1
NAME=VCC B
NICKNAME=VCC B
TLE1=1 44431U 98067QR  20158.01893603  .00008363  00000-0  11968-3 0  9990
TLE2=2 44431  51.6413  32.8612 0001689 298.5411  61.5410 15.57129853 52666
STATUS=0
